H1 CPF 01  gfz 2021 05 15 12  6352 tandemx   
H2 1003001  6202 36605    2021 05 15 12 59 42 2021 05 20 00 00 42   120 1 1  0 0 0
H9
10 0 59351  23022.000000  0    6853642.047   -689879.665   -149933.706
10 0 59351  23142.000000  0    6756057.657   -858486.304  -1051004.872
10 0 59351  23262.000000  0    6537711.350  -1009338.519  -1933595.053
10 0 59351  23382.000000  0    6202859.389  -1137740.006  -2782211.526
10 0 59351  23502.000000  0    5757875.383  -1239485.955  -3581989.470
10 0 59351  23622.000000  0    5211117.542  -1310971.138  -4318954.377
10 0 59351  23742.000000  0    4572759.414  -1349283.423  -4980264.265
10 0 59351  23862.000000  0    3854589.534  -1352281.549  -5554428.175
10 0 59351  23982.000000  0    3069783.788  -1318655.974  -6031497.543
10 0 59351  24102.000000  0    2232657.120  -1247970.644  -6403227.366
10 0 59351  24222.000000  0    1358400.092  -1140684.833  -6663207.693
10 0 59351  24342.000000  0     462804.002   -998156.590  -6806963.397
10 0 59351  24462.000000  0    -438020.304   -822627.163  -6832022.951
10 0 59351  24582.000000  0   -1327925.700   -617186.255  -6737955.782
10 0 59351  24702.000000  0   -2191011.643   -385718.814  -6526379.198
10 0 59351  24822.000000  0   -3011901.829   -132833.842  -6200932.372
10 0 59351  24942.000000  0   -3776011.877    136223.223  -5767220.675
10 0 59351  25062.000000  0   -4469807.356    415674.217  -5232730.067
10 0 59351  25182.000000  0   -5081045.425    699325.678  -4606708.779
10 0 59351  25302.000000  0   -5598997.424    980698.877  -3900020.003
10 0 59351  25422.000000  0   -6014647.427   1253170.968  -3124963.048
10 0 59351  25542.000000  0   -6320860.825   1510123.011  -2295066.107
10 0 59351  25662.000000  0   -6512519.466   1745091.562  -1424853.646
10 0 59351  25782.000000  0   -6586619.770   1951921.222   -529591.630
10 0 59351  25902.000000  0   -6542329.181   2124913.137    374985.682
10 0 59351  26022.000000  0   -6380998.484   2258965.718   1272959.545
10 0 59351  26142.000000  0   -6106130.678   2349705.067   2148515.203
10 0 59351  26262.000000  0   -5723305.916   2393600.824   2986229.694
10 0 59351  26382.000000  0   -5240064.924   2388063.773   3771351.670
10 0 59351  26502.000000  0   -4665753.281   2331522.718   4490067.165
10 0 59351  26622.000000  0   -4011331.979   2223479.722   5129744.542
10 0 59351  26742.000000  0   -3289160.244   2064542.521   5679155.701
10 0 59351  26862.000000  0   -2512754.554   1856434.054   6128671.170
10 0 59351  26982.000000  0   -1696527.955   1601977.778   6470424.450
10 0 59351  27102.000000  0    -855517.120   1305059.462   6698443.230
10 0 59351  27222.000000  0      -5103.317    970566.979   6808746.422
10 0 59351  27342.000000  0     839268.287    604309.119   6799409.022
10 0 59351  27462.000000  0    1662368.078    212914.728   6670593.447
10 0 59351  27582.000000  0    2449455.396   -196286.460   6424547.227
10 0 59351  27702.000000  0    3186542.405   -615400.338   6065567.529
10 0 59351  27822.000000  0    3860645.005  -1036119.226   5599930.917
10 0 59351  27942.000000  0    4460015.532  -1449885.386   5035789.104
10 0 59351  28062.000000  0    4974352.713  -1848064.139   4383032.157
10 0 59351  28182.000000  0    5394986.937  -2222122.673   3653120.640
10 0 59351  28302.000000  0    5715035.747  -2563812.012   2858886.485
10 0 59351  28422.000000  0    5929523.690  -2865347.385   2014306.316
10 0 59351  28542.000000  0    6035465.431  -3119582.214   1134253.065
10 0 59351  28662.000000  0    6031910.511  -3320172.605    234227.982
10 0 59351  28782.000000  0    5919945.508  -3461726.283   -669920.499
10 0 59351  28902.000000  0    5702656.105  -3539933.471  -1562285.376
10 0 59351  29022.000000  0    5385046.707  -3551674.448  -2427189.861
10 0 59351  29142.000000  0    4973923.489  -3495103.198  -3249468.681
10 0 59351  29262.000000  0    4477742.924  -3369704.660  -4014737.869
10 0 59351  29382.000000  0    3906430.082  -3176324.823  -4709646.367
10 0 59351  29502.000000  0    3271171.527  -2917172.380  -5322105.381
10 0 59351  29622.000000  0    2584189.240  -2595793.018  -5841490.191
10 0 59351  29742.000000  0    1858502.242  -2217019.394  -6258813.850
10 0 59351  29862.000000  0    1107678.698  -1786896.244  -6566873.378
10 0 59351  29982.000000  0     345582.282  -1312580.770  -6760363.391
10 0 59351  30102.000000  0    -413880.327   -802223.230  -6835957.150
10 0 59351  30222.000000  0   -1157007.410   -264828.868  -6792356.674
10 0 59351  30342.000000  0   -1870543.593    289897.319  -6630312.444
10 0 59351  30462.000000  0   -2541910.731    851721.351  -6352611.052
10 0 59351  30582.000000  0   -3159424.605   1410063.887  -5964032.580
10 0 59351  30702.000000  0   -3712496.013   1954194.528  -5471277.925
10 0 59351  30822.000000  0   -4191814.720   2473434.620  -4882865.307
10 0 59351  30942.000000  0   -4589511.307   2957365.646  -4208993.797
10 0 59351  31062.000000  0   -4899292.622   3396037.735  -3461376.331
10 0 59351  31182.000000  0   -5116549.551   3780175.386  -2653045.446
10 0 59351  31302.000000  0   -5238433.483   4101375.817  -1798130.923
10 0 59351  31422.000000  0   -5263899.289   4352294.119   -911614.517
10 0 59351  31542.000000  0   -5193713.266   4526811.177     -9064.705
10 0 59351  31662.000000  0   -5030424.357   4620179.859    893642.954
10 0 59351  31782.000000  0   -4778298.380   4629143.543   1780614.423
10 0 59351  31902.000000  0   -4443216.932   4552024.420   2636226.445
10 0 59351  32022.000000  0   -4032543.433   4388780.230   3445409.999
10 0 59351  32142.000000  0   -3554960.669   4141027.369   4193922.080
10 0 59351  32262.000000  0   -3020284.714   3812030.038   4868600.188
10 0 59351  32382.000000  0   -2439259.180   3406656.150   5457595.461
10 0 59351  32502.000000  0   -1823334.444   2931301.041   5950579.048
10 0 59351  32622.000000  0   -1184437.601   2393781.319   6338918.914
10 0 59351  32742.000000  0    -534738.520   1803200.877   6615823.864
10 0 59351  32862.000000  0     113581.505   1169793.831   6776455.807
10 0 59351  32982.000000  0     748558.165    504745.214   6818009.604
10 0 59351  33102.000000  0    1358664.082   -180006.389   6739758.371
10 0 59351  33222.000000  0    1933017.052   -871982.338   6543066.205
10 0 59351  33342.000000  0    2461573.835  -1558390.911   6231366.159
10 0 59351  33462.000000  0    2935306.961  -2226363.104   5810105.128
10 0 59351  33582.000000  0    3346361.820  -2863194.988   5286653.955
10 0 59351  33702.000000  0    3688190.239  -3456591.280   4670184.435
10 0 59351  33822.000000  0    3955659.094  -3994906.391   3971514.027
10 0 59351  33942.000000  0    4145131.281  -4467377.944   3202919.309
10 0 59351  34062.000000  0    4254516.654  -4864347.541   2377921.267
10 0 59351  34182.000000  0    4283292.167  -5177463.242   1511045.130
10 0 59351  34302.000000  0    4232489.579  -5399858.306    617559.368
10 0 59351  34422.000000  0    4104650.672  -5526301.133   -286800.393
10 0 59351  34542.000000  0    3903753.009  -5553314.127  -1186116.107
10 0 59351  34662.000000  0    3635105.441  -5479257.506  -2064577.329
10 0 59351  34782.000000  0    3305217.249  -5304374.672  -2906766.354
10 0 59351  34902.000000  0    2921645.303  -5030800.063  -3697934.500
10 0 59351  35022.000000  0    2492821.659  -4662528.779  -4424262.518
10 0 59351  35142.000000  0    2027867.159  -4205349.925  -5073099.868
10 0 59351  35262.000000  0    1536397.066  -3666745.384  -5633178.510
10 0 59351  35382.000000  0    1028323.162  -3055758.865  -6094798.819
10 0 59351  35502.000000  0     513655.124  -2382838.318  -6449986.983
10 0 59351  35622.000000  0       2305.475  -1659653.398  -6692621.795
10 0 59351  35742.000000  0    -496097.279   -898891.958  -6818529.525
10 0 59351  35862.000000  0    -972384.654   -114039.583  -6825547.671
10 0 59351  35982.000000  0   -1418012.565    680854.432  -6713557.187
10 0 59351  36102.000000  0   -1825211.042   1471421.825  -6484483.898
10 0 59351  36222.000000  0   -2187116.397   2243228.566  -6142268.805
10 0 59351  36342.000000  0   -2497885.927   2982032.440  -5692808.760
10 0 59351  36462.000000  0   -2752792.804   3674043.323  -5143865.318
10 0 59351  36582.000000  0   -2948299.945   4306181.023  -4504942.774
10 0 59351  36702.000000  0   -3082111.304   4866326.470  -3787133.878
10 0 59351  36822.000000  0   -3153197.780   5343559.235  -3002935.175
10 0 59351  36942.000000  0   -3161798.083   5728377.122  -2166037.137
10 0 59351  37062.000000  0   -3109395.052   6012895.411  -1291089.003
10 0 59351  37182.000000  0   -2998664.723   6191017.040   -393440.604
10 0 59351  37302.000000  0   -2833401.810   6258568.752    511129.830
10 0 59351  37422.000000  0   -2618423.078   6213403.410   1406700.981
10 0 59351  37542.000000  0   -2359446.182   6055458.683   2277500.406
10 0 59351  37662.000000  0   -2062950.310   5786771.626   3108191.366
10 0 59351  37782.000000  0   -1736023.491   5411451.662   3884149.528
10 0 59351  37902.000000  0   -1386200.041   4935612.857   4591725.116
10 0 59351  38022.000000  0   -1021291.355   4367266.539   5218485.694
10 0 59351  38142.000000  0    -649213.565   3716177.207   5753433.456
10 0 59351  38262.000000  0    -277818.959   2993686.468   6187194.762
10 0 59351  38382.000000  0      85267.473   2212507.541   6512178.946
10 0 59351  38502.000000  0     432802.379   1386497.041   6722705.050
10 0 59351  38622.000000  0     758067.042    530405.680   6815095.709
10 0 59351  38742.000000  0    1054995.802   -340385.439   6787736.353
10 0 59351  38862.000000  0    1318288.302  -1210140.150   6641102.825
10 0 59351  38982.000000  0    1543504.134  -2063051.346   6377753.932
10 0 59351  39102.000000  0    1727138.106  -2883528.225   6002290.255
10 0 59351  39222.000000  0    1866675.090  -3656483.260   5521278.528
10 0 59351  39342.000000  0    1960623.210  -4367612.847   4943141.654
10 0 59351  39462.000000  0    2008525.527  -5003665.848   4278016.862
99
